{
  "type": "FeatureCollection",
  "name": "Jakarta road features — 04 March 2025 synthetic replay",
  "features": [
    {
      "type": "Feature", "id": "road-supplier-a-north", "properties": {"segmentId": "road-supplier-a-north", "roadName": "Jl. Rajawali Selatan", "roadType": "primary", "lengthKm": 2.1, "travelTimeMinutes": 5, "rainfallMm": 168, "hazardScore": 0.72, "elevationMeters": 5.1, "historicalFloodExposure": 0.64, "drainagePressure": 0.71, "fromNode": "n-sup-a", "toNode": "n-north", "bidirectional": true}, "geometry": {"type": "LineString", "coordinates": [[106.826, -6.139], [106.838, -6.153]]}
    },
    {
      "type": "Feature", "id": "road-gunung-sahari", "properties": {"segmentId": "road-gunung-sahari", "roadName": "Jl. Gunung Sahari", "roadType": "primary", "lengthKm": 4.8, "travelTimeMinutes": 12, "rainfallMm": 168, "hazardScore": 0.93, "elevationMeters": 3.4, "historicalFloodExposure": 0.91, "drainagePressure": 0.86, "fromNode": "n-north", "toNode": "n-central", "bidirectional": true}, "geometry": {"type": "LineString", "coordinates": [[106.838, -6.153], [106.842, -6.164], [106.846, -6.177]]}
    },
    {
      "type": "Feature", "id": "road-kemayoran", "properties": {"segmentId": "road-kemayoran", "roadName": "Jl. Benyamin Sueb", "roadType": "arterial", "lengthKm": 5.4, "travelTimeMinutes": 10, "rainfallMm": 168, "hazardScore": 0.69, "elevationMeters": 4.8, "historicalFloodExposure": 0.63, "drainagePressure": 0.68, "fromNode": "n-central", "toNode": "n-wh-east", "bidirectional": true}, "geometry": {"type": "LineString", "coordinates": [[106.846, -6.177], [106.875, -6.190], [106.913, -6.229]]}
    },
    {
      "type": "Feature", "id": "road-supplier-a-bypass", "properties": {"segmentId": "road-supplier-a-bypass", "roadName": "Jl. Angkasa Bypass", "roadType": "secondary", "lengthKm": 6.2, "travelTimeMinutes": 13, "rainfallMm": 168, "hazardScore": 0.27, "elevationMeters": 8.9, "historicalFloodExposure": 0.18, "drainagePressure": 0.31, "fromNode": "n-sup-a", "toNode": "n-bypass", "bidirectional": true}, "geometry": {"type": "LineString", "coordinates": [[106.826, -6.139], [106.800, -6.170], [106.770, -6.188]]}
    },
    {
      "type": "Feature", "id": "road-west-south", "properties": {"segmentId": "road-west-south", "roadName": "Jl. Letjen S. Parman", "roadType": "arterial", "lengthKm": 6.8, "travelTimeMinutes": 12, "rainfallMm": 168, "hazardScore": 0.22, "elevationMeters": 9.4, "historicalFloodExposure": 0.14, "drainagePressure": 0.24, "fromNode": "n-bypass", "toNode": "n-southwest", "bidirectional": true}, "geometry": {"type": "LineString", "coordinates": [[106.770, -6.188], [106.790, -6.205], [106.830, -6.238]]}
    },
    {
      "type": "Feature", "id": "road-south-factory", "properties": {"segmentId": "road-south-factory", "roadName": "Jl. Gatot Subroto", "roadType": "primary", "lengthKm": 4.1, "travelTimeMinutes": 10, "rainfallMm": 168, "hazardScore": 0.20, "elevationMeters": 9.1, "historicalFloodExposure": 0.12, "drainagePressure": 0.22, "fromNode": "n-southwest", "toNode": "n-factory", "bidirectional": true}, "geometry": {"type": "LineString", "coordinates": [[106.830, -6.238], [106.850, -6.239], [106.875, -6.236]]}
    },
    {
      "type": "Feature", "id": "road-factory-east", "properties": {"segmentId": "road-factory-east", "roadName": "Jl. MT Haryono", "roadType": "primary", "lengthKm": 4.7, "travelTimeMinutes": 11, "rainfallMm": 168, "hazardScore": 0.44, "elevationMeters": 7.2, "historicalFloodExposure": 0.36, "drainagePressure": 0.42, "fromNode": "n-factory", "toNode": "n-wh-east", "bidirectional": true}, "geometry": {"type": "LineString", "coordinates": [[106.875, -6.236], [106.895, -6.233], [106.913, -6.229]]}
    },
    {
      "type": "Feature", "id": "road-supplier-b-east", "properties": {"segmentId": "road-supplier-b-east", "roadName": "Jl. Yos Sudarso", "roadType": "secondary", "lengthKm": 3.6, "travelTimeMinutes": 8, "rainfallMm": 168, "hazardScore": 0.38, "elevationMeters": 6.9, "historicalFloodExposure": 0.29, "drainagePressure": 0.39, "fromNode": "n-sup-b", "toNode": "n-wh-east", "bidirectional": true}, "geometry": {"type": "LineString", "coordinates": [[106.910, -6.195], [106.914, -6.210], [106.913, -6.229]]}
    },
    {"type":"Feature","id":"road-west-store-a","properties":{"segmentId":"road-west-store-a","roadName":"West to Store A","roadType":"local","lengthKm":5.0,"travelTimeMinutes":12,"rainfallMm":168,"hazardScore":0.24,"elevationMeters":8.0,"historicalFloodExposure":0.18,"drainagePressure":0.25,"fromNode":"n-bypass","toNode":"n-store-a","bidirectional":true},"geometry":{"type":"LineString","coordinates":[[106.770,-6.188],[106.808,-6.171]]}},
    {"type":"Feature","id":"road-west-store-b","properties":{"segmentId":"road-west-store-b","roadName":"West to Store B","roadType":"secondary","lengthKm":8.2,"travelTimeMinutes":15,"rainfallMm":168,"hazardScore":0.35,"elevationMeters":7.0,"historicalFloodExposure":0.25,"drainagePressure":0.35,"fromNode":"n-bypass","toNode":"n-store-b","bidirectional":true},"geometry":{"type":"LineString","coordinates":[[106.770,-6.188],[106.852,-6.161]]}},
    {"type":"Feature","id":"road-west-store-c","properties":{"segmentId":"road-west-store-c","roadName":"West to Store C","roadType":"arterial","lengthKm":13.4,"travelTimeMinutes":25,"rainfallMm":168,"hazardScore":0.31,"elevationMeters":7.8,"historicalFloodExposure":0.22,"drainagePressure":0.30,"fromNode":"n-bypass","toNode":"n-store-c","bidirectional":true},"geometry":{"type":"LineString","coordinates":[[106.770,-6.188],[106.893,-6.155]]}},
    {"type":"Feature","id":"road-west-store-d","properties":{"segmentId":"road-west-store-d","roadName":"West to Store D","roadType":"arterial","lengthKm":16.0,"travelTimeMinutes":28,"rainfallMm":168,"hazardScore":0.34,"elevationMeters":7.5,"historicalFloodExposure":0.24,"drainagePressure":0.32,"fromNode":"n-bypass","toNode":"n-store-d","bidirectional":true},"geometry":{"type":"LineString","coordinates":[[106.770,-6.188],[106.927,-6.176]]}},
    {"type":"Feature","id":"road-west-store-e","properties":{"segmentId":"road-west-store-e","roadName":"West to Store E","roadType":"local","lengthKm":6.6,"travelTimeMinutes":14,"rainfallMm":168,"hazardScore":0.28,"elevationMeters":8.2,"historicalFloodExposure":0.20,"drainagePressure":0.27,"fromNode":"n-bypass","toNode":"n-store-e","bidirectional":true},"geometry":{"type":"LineString","coordinates":[[106.770,-6.188],[106.827,-6.220]]}},
    {"type":"Feature","id":"road-east-store-a","properties":{"segmentId":"road-east-store-a","roadName":"East to Store A","roadType":"arterial","lengthKm":12.0,"travelTimeMinutes":22,"rainfallMm":168,"hazardScore":0.58,"elevationMeters":4.6,"historicalFloodExposure":0.55,"drainagePressure":0.61,"fromNode":"n-wh-east","toNode":"n-store-a","bidirectional":true},"geometry":{"type":"LineString","coordinates":[[106.913,-6.229],[106.808,-6.171]]}},
    {"type":"Feature","id":"road-east-store-b","properties":{"segmentId":"road-east-store-b","roadName":"East to Store B","roadType":"secondary","lengthKm":9.4,"travelTimeMinutes":20,"rainfallMm":168,"hazardScore":0.52,"elevationMeters":5.0,"historicalFloodExposure":0.48,"drainagePressure":0.54,"fromNode":"n-wh-east","toNode":"n-store-b","bidirectional":true},"geometry":{"type":"LineString","coordinates":[[106.913,-6.229],[106.852,-6.161]]}},
    {"type":"Feature","id":"road-east-store-c","properties":{"segmentId":"road-east-store-c","roadName":"East to Store C","roadType":"local","lengthKm":7.5,"travelTimeMinutes":12,"rainfallMm":168,"hazardScore":0.82,"elevationMeters":3.2,"historicalFloodExposure":0.81,"drainagePressure":0.83,"fromNode":"n-wh-east","toNode":"n-store-c","bidirectional":true},"geometry":{"type":"LineString","coordinates":[[106.913,-6.229],[106.893,-6.155]]}},
    {"type":"Feature","id":"road-east-store-d","properties":{"segmentId":"road-east-store-d","roadName":"East to Store D","roadType":"local","lengthKm":5.8,"travelTimeMinutes":10,"rainfallMm":168,"hazardScore":0.88,"elevationMeters":2.8,"historicalFloodExposure":0.86,"drainagePressure":0.88,"fromNode":"n-wh-east","toNode":"n-store-d","bidirectional":true},"geometry":{"type":"LineString","coordinates":[[106.913,-6.229],[106.927,-6.176]]}},
    {"type":"Feature","id":"road-east-store-e","properties":{"segmentId":"road-east-store-e","roadName":"East to Store E","roadType":"secondary","lengthKm":8.6,"travelTimeMinutes":18,"rainfallMm":168,"hazardScore":0.46,"elevationMeters":6.0,"historicalFloodExposure":0.38,"drainagePressure":0.43,"fromNode":"n-wh-east","toNode":"n-store-e","bidirectional":true},"geometry":{"type":"LineString","coordinates":[[106.913,-6.229],[106.827,-6.220]]}},
    {"type":"Feature","id":"road-east-west-relief","properties":{"segmentId":"road-east-west-relief","roadName":"Synthetic East-West Relief","roadType":"arterial","lengthKm":10.5,"travelTimeMinutes":12,"rainfallMm":168,"hazardScore":0.14,"elevationMeters":10.0,"historicalFloodExposure":0.08,"drainagePressure":0.18,"fromNode":"n-wh-east","toNode":"n-bypass","bidirectional":true},"geometry":{"type":"LineString","coordinates":[[106.913,-6.229],[106.840,-6.210],[106.770,-6.188]]}}
  ]
}
